ALOS-4 (DAICHI-4)       
1 60182U 24123A   24287.82519575  .00005391  00000+0  72836-3 0  9990
2 60182  97.9215  22.7742 0001537 100.5844 259.5541 14.79463306 15486
